STARLINK-2362
1 17902C 21021AU  21326.18766925  .00001728  00000-0  11580-3 0  3266
2 17902  53.0527 122.8832 0001658  77.5954  45.4388 15.06390513    15
